{
    "links": {
        "self": "http://www.neowsapp.com/rest/v1/neo/3795033?api_key=iIulBulltgU6a56xZRHN4H3l9WmuAYTsLGpBGhQ2"
    },
    "id": "3795033",
    "neo_reference_id": "3795033",
    "name": "(2017 YX3)",
    "designation": "2017 YX3",
    "nasa_jpl_url": "http://ssd.jpl.nasa.gov/sbdb.cgi?sstr=3795033",
    "absolute_magnitude_h": 24.4,
    "estimated_diameter": {
        "kilometers": {
            "estimated_diameter_min": 0.0350392641,
            "estimated_diameter_max": 0.0783501764
        },
        "meters": {
            "estimated_diameter_min": 35.0392641108,
            "estimated_diameter_max": 78.3501764334
        },
        "miles": {
            "estimated_diameter_min": 0.0217723826,
            "estimated_diameter_max": 0.0486845275
        },
        "feet": {
            "estimated_diameter_min": 114.9582192654,
            "estimated_diameter_max": 257.0543928497
        }
    },
    "is_potentially_hazardous_asteroid": false,
    "close_approach_data": [
        {
            "close_approach_date": "2017-12-25",
            "close_approach_date_full": "2017-Dec-25 04:56",
            "epoch_date_close_approach": 1514177760000,
            "relative_velocity": {
                "kilometers_per_second": "8.5001386523",
                "kilometers_per_hour": "30600.4991481599",
                "miles_per_hour": "19013.9601512552"
            },
            "miss_distance": {
                "astronomical": "0.1194401516",
                "lunar": "46.4622189724",
                "kilometers": "17867992.271837092",
                "miles": "11102655.5607401896"
            },
            "orbiting_body": "Earth"
        }
    ],
    "orbital_data": {
        "orbit_id": "4",
        "orbit_determination_date": "2018-01-15 06:58:14",
        "first_observation_date": "2017-12-23",
        "last_observation_date": "2018-01-14",
        "data_arc_in_days": 22,
        "observations_used": 27,
        "orbit_uncertainty": "7",
        "minimum_orbit_intersection": ".0911918",
        "jupiter_tisserand_invariant": "3.188",
        "epoch_osculation": "2459000.5",
        "eccentricity": ".5733245266827168",
        "semi_major_axis": "2.517357446865216",
        "inclination": "10.3833482195222",
        "ascending_node_longitude": "102.1276131067563",
        "orbital_period": "1458.867189203391",
        "perihelion_distance": "1.074094680150004",
        "perihelion_argument": "357.2989644595298",
        "aphelion_distance": "3.960620213580429",
        "perihelion_time": "2459579.745032939396",
        "mean_anomaly": "217.0615520032028",
        "mean_motion": ".2467668082908745",
        "equinox": "J2000",
        "orbit_class": {
            "orbit_class_type": "AMO",
            "orbit_class_description": "Near-Earth asteroid orbits similar to that of 1221 Amor",
            "orbit_class_range": "1.017 AU < q (perihelion) < 1.3 AU"
        }
    },
    "is_sentry_object": false
}